EUTELSAT 8 WEST B       
1 40875U 15039B   25311.81625963 -.00000061  00000+0  00000+0 0  9990
2 40875   0.0686 354.4924 0003961 236.1924 102.4420  1.00271772 37430
EUTELSAT 9B             
1 41310U 16005A   25311.81963963  .00000066  00000+0  00000+0 0  9998
2 41310   0.0769  76.3150 0004537 176.1740  98.8674  1.00272479 35899
EUTELSAT 65 WEST A      
1 41382U 16014A   25311.80490624 -.00000272  00000+0  00000+0 0  9995
2 41382   0.0900  55.3374 0002700 183.5582  32.9501  1.00272202 35315
EUTELSAT 117 WEST B     
1 41589U 16038B   25311.65193873 -.00000007  00000+0  00000+0 0  9995
2 41589   0.0190 117.7846 0000465 319.8255  87.2177  1.00270916 34444
EUTELSAT 172B           
1 42741U 17029B   25311.60780330  .00000000  00000+0  00000+0 0  9994
2 42741   0.0318 143.7452 0000336 160.8397 133.3018  1.00271293 31507
EUTELSAT 7C             
1 44334U 19034B   25311.81920631  .00000053  00000+0  00000+0 0  9993
2 44334   0.0682 184.2646 0003341  28.0591 136.8757  1.00270906  4616
EUTELSAT 5 WEST B       
1 44624U 19067A   25311.81686630 -.00000038  00000+0  00000+0 0  9993
2 44624   0.0698 338.4234 0003533 252.9793 104.9646  1.00270078 22215
EUTELSAT KONNECT        
1 45027U 20005B   25310.03557160  .00000059  00000+0  00000+0 0  9995
2 45027   0.0664  90.5123 0001447 184.0203 150.9894  1.00268266 22089
